OSCAR 7 (AO-7)          
1 07530U 74089B   15054.84975851 -.00000016  00000-0  17507-3 0  9996
2 07530 101.5080  33.7016 0012060 162.3479 312.2496 12.53612028843050
UOSAT 2 (UO-11)         
1 14781U 84021B   15056.72023299  .00000745  00000-0  99887-4 0  9998
2 14781  97.8161 116.4786 0009911  79.5542 280.6787 14.82183648665516
LUSAT (LO-19)           
1 20442U 90005G   15056.39385018  .00000152  00000-0  71705-4 0  9992
2 20442  98.5036 354.1796 0012966 117.6305 242.6197 14.32690200310931
ITAMSAT (IO-26)         
1 22826U 93061D   15056.17213040  .00000136  00000-0  69798-4 0  9997
2 22826  98.6905   6.5159 0007823 267.5572  92.4714 14.30151902117078
RADIO ROSTO (RS-15)     
1 23439U 94085A   15054.83872664 -.00000033  00000-0  28060-3 0  9992
2 23439  64.8127 144.7737 0150240  33.8152 327.2244 11.27562695830377
JAS-2 (FO-29)           
1 24278U 96046B   15056.50203388 -.00000009  00000-0  27677-4 0  9997
2 24278  98.5280  40.4670 0350303   0.6073 107.8814 13.53045226914923
TECHSAT 1B (GO-32)      
1 25397U 98043D   15056.29253006  .00000070  00000-0  49483-4 0  9993
2 25397  98.5069  10.3249 0000305   5.2844 134.0923 14.23519759863875
ISS (ZARYA)             
1 25544U 98067A   15057.14567370  .00014820  00000-0  22168-3 0  9998
2 25544  51.6466 278.6222 0006378  48.0012 101.9366 15.55213285930755
PCSAT (NO-44)           
1 26931U 01043C   15056.54872254  .00000136  00000-0  84450-4 0  9998
2 26931  67.0509 105.0530 0006717 267.4119  92.6213 14.30262965699831
SAUDISAT 1C (SO-50)     
1 27607U 02058C   15056.74910611  .00000868  00000-0  14542-3 0  9994
2 27607  64.5562 178.9990 0075228 310.6866  48.7714 14.74476066654853
CUTE-1 (CO-55)          
1 27844U 03031E   15056.59170051  .00000322  00000-0  16637-3 0  9990
2 27844  98.6976  66.7080 0008658 260.9265 216.3390 14.21721409604584
CUBESAT XI-IV (CO-57)   
1 27848U 03031J   15056.22121706  .00000257  00000-0  13774-3 0  9993
2 27848  98.7072  66.1913 0008530 270.1321 151.5510 14.21379426604447
MOZHAYETS 4 (RS-22)     
1 27939U 03042A   15057.09342713  .00001096  00000-0  20885-3 0  9998
2 27939  97.8311 224.0232 0013643  26.7696 333.4206 14.65822110609915
HAMSAT (VO-52)          
1 28650U 05017B   15056.52962595  .00002721  00000-0  30908-3 0  9999
2 28650  97.5702  54.1271 0025443  44.6857 315.6404 14.86841274530854
CUBESAT XI-V (CO-58)    
1 28895U 05043F   15057.02812911  .00000971  00000-0  19986-3 0  9999
2 28895  97.8226 250.6120 0015927 289.2909  70.6571 14.62529482497343
CUTE-1.7+APD II (CO-65) 
1 32785U 08021C   15056.17884297  .00001675  00000-0  19526-3 0  9994
2 32785  97.6639 103.8127 0014860  79.4121 317.4928 14.86422501369591
DELFI-C3 (DO-64)        
1 32789U 08021G   15056.16528655  .00008603  00000-0  73489-3 0  9996
2 32789  97.6862 117.8982 0011159  47.2702 334.0071 14.97857380370295
SEEDS II (CO-66)        
1 32791U 08021J   15056.09620381  .00002252  00000-0  24986-3 0  9992
2 32791  97.6664 105.3527 0015323  73.5438 286.7462 14.88136298369642
YUBILEINY (RS-30)       
1 32953U 08025A   15057.00418648  .00000010  00000-0 -13620-7 0  9997
2 32953  82.5012  43.3778 0018250 326.2571  33.7346 12.43057128306790
PRISM (HITOMI)          
1 33493U 09002B   15057.09278411  .00005115  00000-0  50720-3 0  9992
2 33493  98.2525 249.1312 0016310 337.1580  22.8924 14.92171067330006
KKS-1 (KISEKI)          
1 33499U 09002H   15056.21319625  .00001226  00000-0  19354-3 0  9991
2 33499  98.2185 191.8260 0009761 174.2839 305.6788 14.74206814327115
SWISSCUBE               
1 35932U 09051B   15056.16869335  .00000962  00000-0  23351-3 0  9999
2 35932  98.3949 174.2685 0006848 329.1650  30.9143 14.55138236287679
BEESAT                  
1 35933U 09051C   15057.20692318  .00000859  00000-0  20863-3 0  9991
2 35933  98.3958 176.1795 0005153 343.6731  16.4299 14.55363022287913
ITUPSAT 1               
1 35935U 09051E   15056.05429822  .00000776  00000-0  19257-3 0  9996
2 35935  98.4059 175.2615 0007403 333.2091  26.8722 14.54616410287628
XIWANG-1 (HOPE-1)       
1 36122U 09072B   15057.04679903 -.00000060  00000-0 -43517-4 0  9990
2 36122 100.2111 105.7461 0007493  19.1407 340.9989 13.16324200249831
TISAT 1                 
1 36799U 10035E   15056.80786736  .00003490  00000-0  38902-3 0  9996
2 36799  98.0116 155.9891 0012905 208.0941 270.6868 14.87674806250397
JUGNU                   
1 37839U 11058B   15055.54254880  .00000475  00000-0  11145-3 0  9998
2 37839  19.9612 165.3564 0018816 245.7010 212.1408 14.12425951174276
SRMSAT                  
1 37841U 11058D   15056.52465473  .00000416  00000-0  83859-4 0  9999
2 37841  19.9714 183.8360 0011615 185.9204 250.5368 14.10445547174161
M-CUBED & EXP-1 PRIME   
1 37855U 11061F   15056.37122288  .00007215  00000-0  44655-3 0  9999
2 37855 101.7152 214.4311 0200593  39.7784 321.7936 14.95160101180435
HORYU 2                 
1 38340U 12025D   15057.13305872  .00002019  00000-0  31640-3 0  9994
2 38340  98.3000  24.3242 0013594  90.3405 269.9360 14.73797861149170
AAUSAT3                 
1 39087U 13009B   15057.04385307  .00000647  00000-0  24273-3 0  9996
2 39087  98.6102 255.7944 0011630 278.0971  81.8888 14.34962625104712
STRAND-1                
1 39090U 13009E   15056.51531083  .00000244  00000-0  10199-3 0  9990
2 39090  98.6147 255.7542 0008156 275.5061  84.5193 14.34728361104637
BEESAT-3                
1 39134U 13015E   15056.37986437  .00010534  00000-0  64579-3 0  9991
2 39134  64.8739  54.7067 0034596 267.8834  91.8327 15.10058958101805
BEESAT-2                
1 39136U 13015G   15056.12721351  .00008501  00000-0  54203-3 0  9992
2 39136  64.8743  57.0906 0035187 267.5894  92.1199 15.08771559101740
CUBEBUG-1 (CAPITAN BETO)
1 39153U 13018D   15057.20248367  .00001602  00000-0  22468-3 0  9998
2 39153  98.0218 141.8999 0016472 249.2201 110.7245 14.78800867 99076
ZACUBE-1 (TSHEPISOSAT)  
1 39417U 13066B   15056.13295902  .00001816  00000-0  24333-3 0  9992
2 39417  97.7434 122.8136 0062140 140.7086 219.8660 14.79263724 68069
TRITON-1                
1 39427U 13066M   15056.37896560  .00001485  00000-0  25110-3 0  9992
2 39427  97.7300 113.6480 0117341 163.4577 197.0508 14.66295413 67482
GOMX 1                  
1 39430U 13066Q   15057.09477948  .00001598  00000-0  30618-3 0  9995
2 39430  97.7243 108.1659 0154431 179.1882 180.9630 14.57707605 67199
HUMSAT-D                
1 39433U 13066T   15057.18061951  .00003705  00000-0  39968-3 0  9990
2 39433  97.7508 129.9937 0034211 127.7311 232.7015 14.88568608 68595
EAGLE 2                 
1 39436U 13066W   15056.15195109  .00025482  00000-0  19975-2 0  9993
2 39436  97.7529 132.0867 0023442 122.0705 238.2799 15.00733840 68651
VELOX-PII               
1 39438U 13066Y   15056.10655117  .00001452  00000-0  20728-3 0  9990
2 39438  97.7403 120.7647 0073728 145.3127 215.2923 14.76342918 67929
CUBEBUG-2 (LO-74)       
1 39440U 13066AA  15056.22002578  .00002032  00000-0  29886-3 0  9992
2 39440  97.7387 119.1734 0083766 148.8944 211.7263 14.74114905 67839
FUNCUBE-1 (AO-73)       
1 39444U 13066AE  15056.13384017  .00002214  00000-0  29225-3 0  9996
2 39444  97.7437 122.9685 0061648 140.1826 220.3934 14.79698858 66845
UWE-3                   
1 39446U 13066AG  15055.86468769  .00001554  00000-0  22011-3 0  9996
2 39446  97.7407 120.6150 0073359 145.7038 214.8941 14.76598579 66677
SPROUT                  
1 39770U 14029E   15056.56546591  .00001797  00000-0  22498-3 0  9992
2 39770  97.8688 154.9634 0009629 198.9988 161.0876 14.83463004 41089
DUCHIFAT-1              
1 40021U 14033M   15057.12775617  .00003460  00000-0  38982-3 0  9998
2 40021  97.9625 317.3813 0013325 183.8060 176.3065 14.87227152 37291
